SL-8 R/B                
1 08459U 75112B   26106.82992977  .00000064  00000+0  29503-4 0  9992
2 08459  74.0600 308.7528 0015093  27.3504 332.8441 14.38223427637352
SL-3 R/B                
1 10114U 77057B   26106.77621047  .00007536  00000+0  15341-3 0  9999
2 10114  97.5808 280.4162 0008096 139.6865 220.4985 15.46546811674211
SEASAT 1                
1 10967U 78064A   26106.19455130  .00000143  00000+0  78349-4 0  9993
2 10967 108.0072 204.1897 0002789 266.2920  93.7907 14.46192682511934
SL-14 R/B               
1 11267U 79011B   26106.60844832  .00000352  00000+0  32202-4 0  9997
2 11267  82.5240  60.5810 0014517 293.4105  66.5588 14.91958529534432
SL-8 R/B                
1 11574U 79089B   26106.47671771  .00000137  00000+0  49324-4 0  9992
2 11574  74.0713  21.0943 0016019 187.4949 172.5971 14.42375271441557
SL-14 R/B               
1 11672U 80005B   26106.71358051  .00000356  00000+0  33357-4 0  9993
2 11672  82.5113 271.1544 0016672  41.0842 319.1629 14.90973970482154
SL-8 R/B                
1 12139U 81003B   26106.66162970  .00009410  00000+0  23333-3 0  9990
2 12139  82.9370 254.8636 0257390  46.7025 315.5358 15.12600150320412
SL-3 R/B                
1 12465U 81046B   26106.79907426  .00007657  00000+0  17249-3 0  9996
2 12465  81.2303 243.9413 0018146 245.4011 114.5342 15.42926776444304
SL-3 R/B                
1 12904U 81103B   26106.84768711  .00002631  00000+0  11456-3 0  9997
2 12904  81.1594 168.6648 0013812 154.0177 206.1751 15.21795827979032
SL-3 R/B                
1 13068U 82013B   26106.84111914  .00002521  00000+0  10740-3 0  9990
2 13068  81.1712 116.0379 0023219  53.6266 306.7103 15.22336992410155
SL-3 R/B                
1 13154U 82039B   26106.82098448  .00000955  00000+0  56368-4 0  9994
2 13154  81.1516 171.9830 0027951 195.3849 164.6530 15.10279423387399
SL-3 R/B                
1 13403U 82079B   26106.78748436  .00003033  00000+0  11857-3 0  9992
2 13403  81.1453 148.0818 0024898  39.9996 320.3065 15.25250812383500
SL-14 R/B               
1 13553U 82092B   26106.48863823  .00000266  00000+0  26994-4 0  9992
2 13553  82.5646 106.0321 0020535 171.2918 353.6185 14.86699335334541
