[
    {
        "OBJECT_NAME": "SL-8 R/B",
        "OBJECT_ID": "1975-112B",
        "EPOCH": "2026-04-16T19:55:05.932128",
        "MEAN_MOTION": 14.38223427,
        "ECCENTRICITY": 0.0015093,
        "INCLINATION": 74.06,
        "RA_OF_ASC_NODE": 308.7528,
        "ARG_OF_PERICENTER": 27.3504,
        "MEAN_ANOMALY": 332.8441,
        "EPHEMERIS_TYPE": 0,
        "CLASSIFICATION_TYPE": "U",
        "NORAD_CAT_ID": 8459,
        "ELEMENT_SET_NO": 999,
        "REV_AT_EPOCH": 63735,
        "BSTAR": 2.9503e-05,
        "MEAN_MOTION_DOT": 6.4e-07,
        "MEAN_MOTION_DDOT": 0
    },
    {
        "OBJECT_NAME": "SL-3 R/B",
        "OBJECT_ID": "1977-057B",
        "EPOCH": "2026-04-16T18:37:44.584608",
        "MEAN_MOTION": 15.46546811,
        "ECCENTRICITY": 0.0008096,
        "INCLINATION": 97.5808,
        "RA_OF_ASC_NODE": 280.4162,
        "ARG_OF_PERICENTER": 139.6865,
        "MEAN_ANOMALY": 220.4985,
        "EPHEMERIS_TYPE": 0,
        "CLASSIFICATION_TYPE": "U",
        "NORAD_CAT_ID": 10114,
        "ELEMENT_SET_NO": 999,
        "REV_AT_EPOCH": 67421,
        "BSTAR": 0.00015341,
        "MEAN_MOTION_DOT": 7.536e-05,
        "MEAN_MOTION_DDOT": 0
    },
    {
        "OBJECT_NAME": "SEASAT 1",
        "OBJECT_ID": "1978-064A",
        "EPOCH": "2026-04-16T04:40:09.232320",
        "MEAN_MOTION": 14.46192682,
        "ECCENTRICITY": 0.00027896,
        "INCLINATION": 108.0072,
        "RA_OF_ASC_NODE": 204.1897,
        "ARG_OF_PERICENTER": 266.292,
        "MEAN_ANOMALY": 93.7907,
        "EPHEMERIS_TYPE": 0,
        "CLASSIFICATION_TYPE": "U",
        "NORAD_CAT_ID": 10967,
        "ELEMENT_SET_NO": 999,
        "REV_AT_EPOCH": 51193,
        "BSTAR": 7.834924e-05,
        "MEAN_MOTION_DOT": 1.43e-06,
        "MEAN_MOTION_DDOT": 0
    },
    {
        "OBJECT_NAME": "SL-14 R/B",
        "OBJECT_ID": "1979-011B",
        "EPOCH": "2026-04-16T14:36:09.934848",
        "MEAN_MOTION": 14.91958529,
        "ECCENTRICITY": 0.0014517,
        "INCLINATION": 82.524,
        "RA_OF_ASC_NODE": 60.581,
        "ARG_OF_PERICENTER": 293.4105,
        "MEAN_ANOMALY": 66.5588,
        "EPHEMERIS_TYPE": 0,
        "CLASSIFICATION_TYPE": "U",
        "NORAD_CAT_ID": 11267,
        "ELEMENT_SET_NO": 999,
        "REV_AT_EPOCH": 53443,
        "BSTAR": 3.2202e-05,
        "MEAN_MOTION_DOT": 3.52e-06,
        "MEAN_MOTION_DDOT": 0
    },
    {
        "OBJECT_NAME": "SL-8 R/B",
        "OBJECT_ID": "1979-089B",
        "EPOCH": "2026-04-16T11:26:28.410144",
        "MEAN_MOTION": 14.42375271,
        "ECCENTRICITY": 0.0016019,
        "INCLINATION": 74.0713,
        "RA_OF_ASC_NODE": 21.0943,
        "ARG_OF_PERICENTER": 187.4949,
        "MEAN_ANOMALY": 172.5971,
        "EPHEMERIS_TYPE": 0,
        "CLASSIFICATION_TYPE": "U",
        "NORAD_CAT_ID": 11574,
        "ELEMENT_SET_NO": 999,
        "REV_AT_EPOCH": 44155,
        "BSTAR": 4.9324e-05,
        "MEAN_MOTION_DOT": 1.37e-06,
        "MEAN_MOTION_DDOT": 0
    },
    {
        "OBJECT_NAME": "SL-14 R/B",
        "OBJECT_ID": "1980-005B",
        "EPOCH": "2026-04-16T17:07:33.356064",
        "MEAN_MOTION": 14.9097397,
        "ECCENTRICITY": 0.0016672,
        "INCLINATION": 82.5113,
        "RA_OF_ASC_NODE": 271.1544,
        "ARG_OF_PERICENTER": 41.0842,
        "MEAN_ANOMALY": 319.1629,
        "EPHEMERIS_TYPE": 0,
        "CLASSIFICATION_TYPE": "U",
        "NORAD_CAT_ID": 11672,
        "ELEMENT_SET_NO": 999,
        "REV_AT_EPOCH": 48215,
        "BSTAR": 3.3357e-05,
        "MEAN_MOTION_DOT": 3.56e-06,
        "MEAN_MOTION_DDOT": 0
    },
    {
        "OBJECT_NAME": "SL-8 R/B",
        "OBJECT_ID": "1981-003B",
        "EPOCH": "2026-04-16T15:52:44.806080",
        "MEAN_MOTION": 15.1260015,
        "ECCENTRICITY": 0.025739,
        "INCLINATION": 82.937,
        "RA_OF_ASC_NODE": 254.8636,
        "ARG_OF_PERICENTER": 46.7025,
        "MEAN_ANOMALY": 315.5358,
        "EPHEMERIS_TYPE": 0,
        "CLASSIFICATION_TYPE": "U",
        "NORAD_CAT_ID": 12139,
        "ELEMENT_SET_NO": 999,
        "REV_AT_EPOCH": 32041,
        "BSTAR": 0.00023333,
        "MEAN_MOTION_DOT": 9.41e-05,
        "MEAN_MOTION_DDOT": 0
    },
    {
        "OBJECT_NAME": "SL-3 R/B",
        "OBJECT_ID": "1981-046B",
        "EPOCH": "2026-04-16T19:10:40.016064",
        "MEAN_MOTION": 15.42926776,
        "ECCENTRICITY": 0.0018146,
        "INCLINATION": 81.2303,
        "RA_OF_ASC_NODE": 243.9413,
        "ARG_OF_PERICENTER": 245.4011,
        "MEAN_ANOMALY": 114.5342,
        "EPHEMERIS_TYPE": 0,
        "CLASSIFICATION_TYPE": "U",
        "NORAD_CAT_ID": 12465,
        "ELEMENT_SET_NO": 999,
        "REV_AT_EPOCH": 44430,
        "BSTAR": 0.00017249,
        "MEAN_MOTION_DOT": 7.657e-05,
        "MEAN_MOTION_DDOT": 0
    },
    {
        "OBJECT_NAME": "SL-3 R/B",
        "OBJECT_ID": "1981-103B",
        "EPOCH": "2026-04-16T20:20:40.166304",
        "MEAN_MOTION": 15.21795827,
        "ECCENTRICITY": 0.0013812,
        "INCLINATION": 81.1594,
        "RA_OF_ASC_NODE": 168.6648,
        "ARG_OF_PERICENTER": 154.0177,
        "MEAN_ANOMALY": 206.1751,
        "EPHEMERIS_TYPE": 0,
        "CLASSIFICATION_TYPE": "U",
        "NORAD_CAT_ID": 12904,
        "ELEMENT_SET_NO": 999,
        "REV_AT_EPOCH": 97903,
        "BSTAR": 0.00011456,
        "MEAN_MOTION_DOT": 2.631e-05,
        "MEAN_MOTION_DDOT": 0
    },
    {
        "OBJECT_NAME": "SL-3 R/B",
        "OBJECT_ID": "1982-013B",
        "EPOCH": "2026-04-16T20:11:12.693696",
        "MEAN_MOTION": 15.22336992,
        "ECCENTRICITY": 0.0023219,
        "INCLINATION": 81.1712,
        "RA_OF_ASC_NODE": 116.0379,
        "ARG_OF_PERICENTER": 53.6266,
        "MEAN_ANOMALY": 306.7103,
        "EPHEMERIS_TYPE": 0,
        "CLASSIFICATION_TYPE": "U",
        "NORAD_CAT_ID": 13068,
        "ELEMENT_SET_NO": 999,
        "REV_AT_EPOCH": 41015,
        "BSTAR": 0.0001074,
        "MEAN_MOTION_DOT": 2.521e-05,
        "MEAN_MOTION_DDOT": 0
    },
    {
        "OBJECT_NAME": "SL-3 R/B",
        "OBJECT_ID": "1982-039B",
        "EPOCH": "2026-04-16T19:42:13.059072",
        "MEAN_MOTION": 15.10279423,
        "ECCENTRICITY": 0.0027951,
        "INCLINATION": 81.1516,
        "RA_OF_ASC_NODE": 171.983,
        "ARG_OF_PERICENTER": 195.3849,
        "MEAN_ANOMALY": 164.653,
        "EPHEMERIS_TYPE": 0,
        "CLASSIFICATION_TYPE": "U",
        "NORAD_CAT_ID": 13154,
        "ELEMENT_SET_NO": 999,
        "REV_AT_EPOCH": 38739,
        "BSTAR": 5.6368e-05,
        "MEAN_MOTION_DOT": 9.55e-06,
        "MEAN_MOTION_DDOT": 0
    },
    {
        "OBJECT_NAME": "SL-3 R/B",
        "OBJECT_ID": "1982-079B",
        "EPOCH": "2026-04-16T18:53:58.648704",
        "MEAN_MOTION": 15.25250812,
        "ECCENTRICITY": 0.0024898,
        "INCLINATION": 81.1453,
        "RA_OF_ASC_NODE": 148.0818,
        "ARG_OF_PERICENTER": 39.9996,
        "MEAN_ANOMALY": 320.3065,
        "EPHEMERIS_TYPE": 0,
        "CLASSIFICATION_TYPE": "U",
        "NORAD_CAT_ID": 13403,
        "ELEMENT_SET_NO": 999,
        "REV_AT_EPOCH": 38350,
        "BSTAR": 0.00011857,
        "MEAN_MOTION_DOT": 3.033e-05,
        "MEAN_MOTION_DDOT": 0
    },
    {
        "OBJECT_NAME": "SL-14 R/B",
        "OBJECT_ID": "1982-092B",
        "EPOCH": "2026-04-16T11:43:38.343072",
        "MEAN_MOTION": 14.86699335,
        "ECCENTRICITY": 0.0020535,
        "INCLINATION": 82.5646,
        "RA_OF_ASC_NODE": 106.0321,
        "ARG_OF_PERICENTER": 171.2918,
        "MEAN_ANOMALY": 353.6185,
        "EPHEMERIS_TYPE": 0,
        "CLASSIFICATION_TYPE": "U",
        "NORAD_CAT_ID": 13553,
        "ELEMENT_SET_NO": 999,
        "REV_AT_EPOCH": 33454,
        "BSTAR": 2.6994e-05,
        "MEAN_MOTION_DOT": 2.66e-06,
        "MEAN_MOTION_DDOT": 0
    }
]